CZ-4B R/B               
1 29507U 06046C   26194.16077515  .00002315  00000+0  11591-3 0  9993
2 29507  97.5442 238.6879 0032369 189.2203 170.8440 15.17971389 79075
CZ-2C R/B               
1 31114U 07010B   26194.26672714  .00000026  00000+0  31042-4 0  9996
2 31114  98.4117 301.3447 0057804 289.4901  70.0038 14.20281507997543
COSMO-SKYMED 1          
1 31598U 07023A   26194.46774542  .00001356  00000+0  12240-3 0  9995
2 31598  97.8844  26.5459 0001276 103.6107 256.5256 14.97214348 33722
COSMOS 2428             
1 31792U 07029A   26194.47976292  .00000200  00000+0  13300-3 0  9999
2 31792  70.9381 299.2730 0007192  84.6462 275.5480 14.12933389981869
SL-16 R/B               
1 31793U 07029B   26194.48663639  .00000100  00000+0  76483-4 0  9990
2 31793  70.9746 267.9446 0002013 256.2261 196.3568 14.14851127983165
KORONAS-FOTON           
1 33504U 09003A   26194.35701676  .00008194  00000+0  16523-3 0  9995
2 33504  82.4302 144.9497 0012319  67.7642 292.4913 15.46270004965146
CZ-2C R/B               
1 37731U 11030B   26194.45861721  .00000538  00000+0  74063-4 0  9991
2 37731  97.8669 149.3738 0050890 301.9687 169.3473 14.81530536808712
H-2A R/B                
1 38341U 12025E   26194.44674352  .00000592  00000+0  58386-4 0  9995
2 38341  98.4848 171.7619 0042396 261.0310  98.6109 14.95835256767013
SHIJIAN-16 (SJ-16)      
1 39358U 13057A   26194.51361016  .00000204  00000+0  22654-4 0  9997
2 39358  74.9737 306.8187 0015839 168.8654 191.2889 14.92666020690272
SL-4 R/B                
1 39679U 14021B   26193.91861972  .00007119  00000+0  14899-3 0  9997
2 39679  51.6063  84.6655 0089796 200.0922 159.6520 15.42452959675580
ALOS-2                  
1 39766U 14029A   26194.51598295  .00001096  00000+0  15366-3 0  9992
2 39766  97.9231 291.3036 0001617  93.5701 266.5695 14.79472913655471
YAOGAN-29               
1 41038U 15069A   26194.49017594  .00000256  00000+0  38085-4 0  9998
2 41038  98.0024 223.1630 0000875  12.9843 347.1392 14.83105248574523
ASTRO-H (HITOMI)        
1 41337U 16012A   26194.46539588  .00001442  00000+0  79368-4 0  9995
2 41337  30.9985 264.4618 0009607 157.9025 202.2028 15.10628471571268
HXMT (HUIYAN)           
1 42758U 17034A   26194.50990458  .00002480  00000+0  12747-3 0  9990
2 42758  43.0153  36.4468 0032475 310.4135  49.3882 15.18679884501662
SAOCOM 1A               
1 43641U 18076A   26194.53266244  .00000017  00000+0  86419-5 0  9994
2 43641  97.8884  20.8984 0001426  86.6228 273.5148 14.82145487420000
H-2A R/B                
1 43682U 18084L   26194.15285543  .00013747  00000+0  28042-3 0  9999
2 43682  98.8540  78.7338 0020701 308.1441  51.7937 15.46149333425132
SAOCOM 1B               
1 46265U 20059A   26194.49636539  .00000399  00000+0  56672-4 0  9996
2 46265  97.8889  19.9591 0001577  81.2462 278.8929 14.82158978317381
CSS (TIANHE)            
1 48274U 21035A   26194.29199889  .00000808  00000+0  14714-4 0  9999
2 48274  41.4687 163.3687 0002245 292.1657  67.8943 15.58053764297241
COSMOS 2550             
1 48865U 21056A   26194.69426183  .00000545  00000+0  22411-4 0  9993
2 48865  67.1415  19.7235 0008386 269.4990  90.5204 15.33820895282789
CZ-2C R/B               
1 52794U 22058K   26193.94606983  .00034864  00000+0  36103-3 0  9990
2 52794  50.1858  29.2996 0030465  13.2357 346.9410 15.63734509229678
CZ-2C R/B               
1 54039U 22132E   26194.48655308  .00047023  00000+0  31861-3 0  9999
2 54039  97.2888 202.7479 0009734 350.2513   9.8561 15.74817111210084
GSLV R/B                
1 54149U 22138AN  26194.31562600  .00001308  00000+0  10948-3 0  9990
2 54149  87.3818 124.2105 0023719  58.3676 301.9865 14.97377522202724
XRISM                   
1 57800U 23137A   26194.32274360  .00002060  00000+0  10940-3 0  9999
2 57800  31.0007 190.2776 0007858 227.7814 132.2158 15.12661465156825
ACS3                    
1 59588U 24077B   26192.74048558  .00010248  00000+0  71307-2 0  9990
2 59588  97.1723 106.0854 0121011  40.7850 320.2298 13.95349463111466
SPACEMOBILE-003         
1 61045U 24163A   26193.12443383  .00000008  00000+0  15017-4 0  9996
2 61045  52.9645 194.7701 0003953 176.8899 183.2120 15.20757146101564
SPACEMOBILE-005         
1 61046U 24163B   26194.09371225  .00000320  00000+0  29081-4 0  9992
2 61046  52.9757 190.2542 0008516 188.4778 171.6074 15.20746160101707
SPACEMOBILE-001         
1 61047U 24163C   26192.44911905  .00000309  00000+0  28551-4 0  9993
2 61047  52.9736 197.5273 0007475 183.3179 176.7767 15.20792937101458
SPACEMOBILE-002         
1 61048U 24163D   26194.07601240  .00013464  00000+0  61597-3 0  9995
2 61048  52.9787 190.0866 0006379 191.8159 168.2686 15.20818302101704
SPACEMOBILE-004         
1 61049U 24163E   26193.40140888  .00012717  00000+0  58302-3 0  9998
2 61049  52.9682 192.9673 0006853 216.7757 143.2768 15.20795560101607
CZ-8A R/B               
1 66004U 25231K   26194.46461494 -.00000086  00000+0  27769-4 0  9998
2 66004  50.0045 287.5215 0116551 316.5195  42.6575 14.30161905 38708
