OBJECT_NAME,OBJECT_ID,EPOCH,MEAN_MOTION,ECCENTRICITY,INCLINATION,RA_OF_ASC_NODE,ARG_OF_PERICENTER,MEAN_ANOMALY,EPHEMERIS_TYPE,CLASSIFICATION_TYPE,NORAD_CAT_ID,ELEMENT_SET_NO,REV_AT_EPOCH,BSTAR,MEAN_MOTION_DOT,MEAN_MOTION_DDOT
CZ-4B R/B,2006-046C,2026-07-13T03:51:30.972960,15.17971389,.00323695,97.5442,238.6879,189.2203,170.8440,0,U,29507,999,7907,.11590832E-3,.2315E-4,0
CZ-2C R/B,2007-010B,2026-07-13T06:24:05.224896,14.20281507,.0057804,98.4117,301.3447,289.4901,70.0038,0,U,31114,999,99754,.31042E-4,.26E-6,0
COSMO-SKYMED 1,2007-023A,2026-07-13T11:13:33.204288,14.97214348,.0001276,97.8844,26.5459,103.6107,256.5256,0,U,31598,999,3372,.1224E-3,.1356E-4,0
COSMOS 2428,2007-029A,2026-07-13T11:30:51.516288,14.12933389,.0007192,70.9381,299.2730,84.6462,275.5480,0,U,31792,999,98186,.133E-3,.2E-5,0
SL-16 R/B,2007-029B,2026-07-13T11:40:45.384096,14.14851127,.0002013,70.9746,267.9446,256.2261,196.3568,0,U,31793,999,98316,.76483E-4,.1E-5,0
KORONAS-FOTON,2009-003A,2026-07-13T08:34:06.248064,15.46270004,.0012319,82.4302,144.9497,67.7642,292.4913,0,U,33504,999,96514,.16523E-3,.8194E-4,0
CZ-2C R/B,2011-030B,2026-07-13T11:00:24.526944,14.81530536,.005089,97.8669,149.3738,301.9687,169.3473,0,U,37731,999,80871,.74063E-4,.538E-5,0
H-2A R/B,2012-025E,2026-07-13T10:43:18.640128,14.95835256,.0042396,98.4848,171.7619,261.0310,98.6109,0,U,38341,999,76701,.58386E-4,.592E-5,0
SHIJIAN-16 (SJ-16),2013-057A,2026-07-13T12:19:35.917824,14.92666020,.0015839,74.9737,306.8187,168.8654,191.2889,0,U,39358,999,69027,.22654E-4,.204E-5,0
SL-4 R/B,2014-021B,2026-07-12T22:02:48.743808,15.42452959,.00897962,51.6063,84.6655,200.0922,159.6520,0,U,39679,999,67558,.14899335E-3,.7119E-4,0
ALOS-2,2014-029A,2026-07-13T12:23:00.926880,14.79472913,.0001617,97.9231,291.3036,93.5701,266.5695,0,U,39766,999,65547,.15366E-3,.1096E-4,0
YAOGAN-29,2015-069A,2026-07-13T11:45:51.201216,14.83105248,.0000875,98.0024,223.1630,12.9843,347.1392,0,U,41038,999,57452,.38085E-4,.256E-5,0
ASTRO-H (HITOMI),2016-012A,2026-07-13T11:10:10.204032,15.10628471,.0009607,30.9985,264.4618,157.9025,202.2028,0,U,41337,999,57126,.79368E-4,.1442E-4,0
HXMT (HUIYAN),2017-034A,2026-07-13T12:14:15.755712,15.18679884,.0032475,43.0153,36.4468,310.4135,49.3882,0,U,42758,999,50166,.12747E-3,.248E-4,0
SAOCOM 1A,2018-076A,2026-07-13T12:47:02.034816,14.82145487,.0001426,97.8884,20.8984,86.6228,273.5148,0,U,43641,999,42000,.86419E-5,.17E-6,0
H-2A R/B,2018-084L,2026-07-13T03:40:06.709152,15.46149333,.00207013,98.8540,78.7338,308.1441,51.7937,0,U,43682,999,42513,.28042063E-3,.13747E-3,0
SAOCOM 1B,2020-059A,2026-07-13T11:54:45.969696,14.82158978,.0001577,97.8889,19.9591,81.2462,278.8929,0,U,46265,999,31738,.56672E-4,.399E-5,0
CSS (TIANHE),2021-035A,2026-07-13T07:00:28.704096,15.58053764,.0002245,41.4687,163.3687,292.1657,67.8943,0,U,48274,999,29724,.14714E-4,.808E-5,0
COSMOS 2550,2021-056A,2026-07-13T16:39:44.222112,15.33820895,.0008386,67.1415,19.7235,269.4990,90.5204,0,U,48865,999,28278,.22411E-4,.545E-5,0
CZ-2C R/B,2022-058K,2026-07-12T22:42:20.433312,15.63734509,.00304657,50.1858,29.2996,13.2357,346.9410,0,U,52794,999,22967,.36102805E-3,.34864E-3,0
CZ-2C R/B,2022-132E,2026-07-13T11:40:38.186112,15.74817111,.0009734,97.2888,202.7479,350.2513,9.8561,0,U,54039,999,21008,.31861E-3,.47023E-3,0
GSLV R/B,2022-138AN,2026-07-13T07:34:30.086400,14.97377522,.0023719,87.3818,124.2105,58.3676,301.9865,0,U,54149,999,20272,.10948E-3,.1308E-4,0
XRISM,2023-137A,2026-07-13T07:44:45.047040,15.12661465,.0007858,31.0007,190.2776,227.7814,132.2158,0,U,57800,999,15682,.1094E-3,.206E-4,0
ACS3,2024-077B,2026-07-11T17:46:17.954112,13.95349463,.01210111,97.1723,106.0854,40.7850,320.2298,0,U,59588,999,11146,.713075E-2,.10248E-3,0
SPACEMOBILE-003,2024-163A,2026-07-12T02:59:11.082912,15.20757146,.00039532,52.9645,194.7701,176.8899,183.2120,0,U,61045,999,10156,.15017438E-4,.8E-7,0
SPACEMOBILE-005,2024-163B,2026-07-13T02:14:56.738400,15.20746160,.00085164,52.9757,190.2542,188.4778,171.6074,0,U,61046,999,10170,.29081362E-4,.32E-5,0
SPACEMOBILE-001,2024-163C,2026-07-11T10:46:43.885920,15.20792937,.00074751,52.9736,197.5273,183.3179,176.7767,0,U,61047,999,10145,.28550562E-4,.309E-5,0
SPACEMOBILE-002,2024-163D,2026-07-13T01:49:27.471360,15.20818302,.00063791,52.9787,190.0866,191.8159,168.2686,0,U,61048,999,10170,.61596906E-3,.13464E-3,0
SPACEMOBILE-004,2024-163E,2026-07-12T09:38:01.727232,15.20795560,.0006853,52.9682,192.9673,216.7757,143.2768,0,U,61049,999,10160,.58302E-3,.12717E-3,0
CZ-8A R/B,2025-231K,2026-07-13T11:09:02.730816,14.30161905,.0116551,50.0045,287.5215,316.5195,42.6575,0,U,66004,999,3870,.27769E-4,-.86E-6,0
